COMMENT,ORIGINATOR,NORAD_CAT_ID,OBJECT_NAME,OBJECT_TYPE,CLASSIFICATION_TYPE,INTLDES,EPOCH,EPOCH_MICROSECONDS,MEAN_MOTION,ECCENTRICITY,INCLINATION,RA_OF_ASC_NODE,ARG_OF_PERICENTER,MEAN_ANOMALY,EPHEMERIS_TYPE,ELEMENT_SET_NO,REV_AT_EPOCH,BSTAR,MEAN_MOTION_DOT,MEAN_MOTION_DDOT,FILE,TLE_LINE0,TLE_LINE1,TLE_LINE2,OBJECT_ID,OBJECT_NUMBER,SEMIMAJOR_AXIS,PERIOD,APOGEE,PERIGEE,DECAYED
"GENERATED VIA SPACETRACK.ORG API","18 SPCS","48886","SPACEBEE-102","PAYLOAD","U","21059H","2023-02-04 21:13:53","358240","15.21788507","0.000764","97.5768","170.482","17.2017","342.9476","0","999","8919","0.00082469","0.00018688","0","3772514","0 SPACEBEE-102","1 48886U 21059H   23035.88464535  .00018688  00000-0  82469-3 0  9990","2 48886  97.5768 170.4820 0007640  17.2017 342.9476 15.21788507 89191","2021-059H","48886","6878.583","94.626","505.703","495.193","0"
"GENERATED VIA SPACETRACK.ORG API","18 SPCS","48886","SPACEBEE-102","PAYLOAD","U","21059H","2023-02-05 08:16:41","73312","15.21807166","0.0007617","97.5769","170.9455","15.3682","344.7783","0","999","8926","0.00080452","0.00018238","0","3773728","0 SPACEBEE-102","1 48886U 21059H   23036.34491983  .00018238  00000-0  80452-3 0  9990","2 48886  97.5769 170.9455 0007617  15.3682 344.7783 15.21807166 89264","2021-059H","48886","6878.527","94.624","505.631","495.152","0"
"GENERATED VIA SPACETRACK.ORG API","18 SPCS","48886","SPACEBEE-102","PAYLOAD","U","21059H","2023-02-05 22:28:50","201760","15.21835397","0.0007607","97.5771","171.5415","12.8674","347.2754","0","999","8935","0.00093616","0.0002126","0","3774172","0 SPACEBEE-102","1 48886U 21059H   23036.93669215  .00021260  00000-0  93616-3 0  9995","2 48886  97.5771 171.5415 0007607  12.8674 347.2754 15.21835397 89355","2021-059H","48886","6878.442","94.623","505.539","495.074","0"
"GENERATED VIA SPACETRACK.ORG API","18 SPCS","48886","SPACEBEE-102","PAYLOAD","U","21059H","2023-02-05 22:28:50","201760","15.21835397","0.0007607","97.5771","171.5415","12.8674","347.2754","0","999","8935","0.00093616","0.0002126","0","3774503","0 SPACEBEE-102","1 48886U 21059H   23036.93669215  .00021260  00000-0  93616-3 0  9995","2 48886  97.5771 171.5415 0007607  12.8674 347.2754 15.21835397 89355","2021-059H","48886","6878.442","94.623","505.539","495.074","0"
"GENERATED VIA SPACETRACK.ORG API","18 SPCS","48886","SPACEBEE-102","PAYLOAD","U","21059H","2023-02-06 07:56:55","927968","15.21852344","0.0007622","97.577","171.9389","11.2341","348.9064","0","999","8941","0.001052","0.0002392","0","3775254","0 SPACEBEE-102","1 48886U 21059H   23037.33120287  .00023920  00000-0  10520-2 0  9998","2 48886  97.5770 171.9389 0007622  11.2341 348.9064 15.21852344 89419","2021-059H","48886","6878.391","94.622","505.498","495.013","0"
"GENERATED VIA SPACETRACK.ORG API","18 SPCS","48886","SPACEBEE-102","PAYLOAD","U","21059H","2023-02-06 20:34:22","696032","15.21882886","0.000759","97.5771","172.4683","8.9925","351.1445","0","999","8949","0.0011805","0.00026885","0","3776034","0 SPACEBEE-102","1 48886U 21059H   23037.85720713  .00026885  00000-0  11805-2 0  9995","2 48886  97.5771 172.4683 0007590   8.9925 351.1445 15.21882886 89499","2021-059H","48886","6878.298","94.620","505.384","494.943","0"
"GENERATED VIA SPACETRACK.ORG API","18 SPCS","48886","SPACEBEE-102","PAYLOAD","U","21059H","2023-02-07 07:37:07","866624","15.21912476","0.0007602","97.5773","172.9322","7.7324","352.4028","0","999","8956","0.0013693","0.00031242","0","3776997","0 SPACEBEE-102","1 48886U 21059H   23038.31745216  .00031242  00000-0  13693-2 0  9992","2 48886  97.5773 172.9322 0007602   7.7324 352.4028 15.21912476 89568","2021-059H","48886","6878.209","94.618","505.303","494.846","0"
"GENERATED VIA SPACETRACK.ORG API","18 SPCS","48886","SPACEBEE-102","PAYLOAD","U","21059H","2023-02-07 07:37:07","866624","15.21912476","0.0007602","97.5773","172.9322","7.7324","352.4028","0","999","8956","0.0013693","0.00031242","0","3777208","0 SPACEBEE-102","1 48886U 21059H   23038.31745216  .00031242  00000-0  13693-2 0  9992","2 48886  97.5773 172.9322 0007602   7.7324 352.4028 15.21912476 89568","2021-059H","48886","6878.209","94.618","505.303","494.846","0"
"GENERATED VIA SPACETRACK.ORG API","18 SPCS","48886","SPACEBEE-102","PAYLOAD","U","21059H","2023-02-07 21:49:13","324800","15.21950746","0.0007533","97.5777","173.5281","6.4774","353.6558","0","999","8965","0.0013151","0.00030031","0","3777976","0 SPACEBEE-102","1 48886U 21059H   23038.90918200  .00030031  00000-0  13151-2 0  9996","2 48886  97.5777 173.5281 0007533   6.4774 353.6558 15.21950746 89654","2021-059H","48886","6878.094","94.615","505.140","494.778","0"
"GENERATED VIA SPACETRACK.ORG API","18 SPCS","48886","SPACEBEE-102","PAYLOAD","U","21059H","2023-02-08 07:17:16","123776","15.21981151","0.0007559","97.5775","173.9256","5.0419","355.0891","0","999","8971","0.0014234","0.0003255","0","3780324","0 SPACEBEE-102","1 48886U 21059H   23039.30365884  .00032550  00000-0  14234-2 0  9996","2 48886  97.5775 173.9256 0007559   5.0419 355.0891 15.21981151 89714","2021-059H","48886","6878.002","94.614","505.067","494.668","0"
"GENERATED VIA SPACETRACK.ORG API","18 SPCS","48886","SPACEBEE-102","PAYLOAD","U","21059H","2023-02-08 07:17:16","123776","15.21981151","0.0007559","97.5775","173.9256","5.0419","355.0891","0","999","8971","0.0014234","0.0003255","0","3780455","0 SPACEBEE-102","1 48886U 21059H   23039.30365884  .00032550  00000-0  14234-2 0  9996","2 48886  97.5775 173.9256 0007559   5.0419 355.0891 15.21981151 89714","2021-059H","48886","6878.002","94.614","505.067","494.668","0"
"GENERATED VIA SPACETRACK.ORG API","18 SPCS","48886","SPACEBEE-102","PAYLOAD","U","21059H","2023-02-08 21:29:19","213728","15.22025364","0.0007495","97.578","174.5216","3.2998","356.8286","0","999","8980","0.0015515","0.00035546","0","3780893","0 SPACEBEE-102","1 48886U 21059H   23039.89536127  .00035546  00000-0  15515-2 0  9991","2 48886  97.5780 174.5216 0007495   3.2998 356.8286 15.22025364 89807","2021-059H","48886","6877.869","94.611","504.889","494.579","0"
"GENERATED VIA SPACETRACK.ORG API","18 SPCS","48886","SPACEBEE-102","PAYLOAD","U","21059H","2023-02-09 08:32:00","541248","15.22060214","0.000751","97.5779","174.9856","1.4306","358.695","0","999","8987","0.0015966","0.00036624","0","3782313","0 SPACEBEE-102","1 48886U 21059H   23040.35556182  .00036624  00000-0  15966-2 0  9995","2 48886  97.5779 174.9856 0007510   1.4306 358.6950 15.22060214 89878","2021-059H","48886","6877.764","94.609","504.794","494.464","0"
"GENERATED VIA SPACETRACK.ORG API","18 SPCS","48886","SPACEBEE-102","PAYLOAD","U","21059H","2023-02-09 08:32:00","541248","15.22060214","0.000751","97.5779","174.9856","1.4306","358.695","0","999","8987","0.0015966","0.00036624","0","3782805","0 SPACEBEE-102","1 48886U 21059H   23040.35556182  .00036624  00000-0  15966-2 0  9995","2 48886  97.5779 174.9856 0007510   1.4306 358.6950 15.22060214 89878","2021-059H","48886","6877.764","94.609","504.794","494.464","0"
"GENERATED VIA SPACETRACK.ORG API","18 SPCS","48886","SPACEBEE-102","PAYLOAD","U","21059H","2023-02-09 21:09:20","983968","15.22099806","0.0007487","97.5779","175.5155","359.4751","0.6475","0","999","8995","0.0015718","0.00036093","0","3784184","0 SPACEBEE-102","1 48886U 21059H   23040.88149287  .00036093  00000-0  15718-2 0  9992","2 48886  97.5779 175.5155 0007487 359.4751   0.6475 15.22099806 89954","2021-059H","48886","6877.645","94.606","504.659","494.361","0"
"GENERATED VIA SPACETRACK.ORG API","18 SPCS","48886","SPACEBEE-102","PAYLOAD","U","21059H","2023-02-10 08:12:00","340704","15.22141212","0.0007501","97.5777","175.9792","357.5172","2.6025","0","999","9002","0.0019179","0.00044158","0","3784431","0 SPACEBEE-102","1 48886U 21059H   23041.34167061  .00044158  00000-0  19179-2 0  9990","2 48886  97.5777 175.9792 0007501 357.5172   2.6025 15.22141212 90028","2021-059H","48886","6877.520","94.604","504.544","494.226","0"
"GENERATED VIA SPACETRACK.ORG API","18 SPCS","48886","SPACEBEE-102","PAYLOAD","U","21059H","2023-02-10 14:30:39","555936","15.22157872","0.0007482","97.5775","176.2441","356.5171","3.6012","0","999","9006","0.0016973","0.00039063","0","3785071","0 SPACEBEE-102","1 48886U 21059H   23041.60462449  .00039063  00000-0  16973-2 0  9995","2 48886  97.5775 176.2441 0007482 356.5171   3.6012 15.22157872 90067","2021-059H","48886","6877.470","94.603","504.481","494.189","0"
"GENERATED VIA SPACETRACK.ORG API","18 SPCS","48886","SPACEBEE-102","PAYLOAD","U","21059H","2023-02-11 03:07:57","43776","15.2220225","0.0007572","97.5773","176.7739","353.9853","6.1291","0","999","9014","0.0018721","0.00043174","0","3785944","0 SPACEBEE-102","1 48886U 21059H   23042.13052134  .00043174  00000-0  18721-2 0  9991","2 48886  97.5773 176.7739 0007572 353.9853   6.1291 15.22202250 90145","2021-059H","48886","6877.336","94.600","504.409","493.994","0"
"GENERATED VIA SPACETRACK.ORG API","18 SPCS","48886","SPACEBEE-102","PAYLOAD","U","21059H","2023-02-11 14:10:33","720384","15.22240351","0.0007596","97.5772","177.2375","352.1861","7.9255","0","999","9021","0.0018019","0.0004159","0","3786144","0 SPACEBEE-102","1 48886U 21059H   23042.59066806  .00041590  00000-0  18019-2 0  9992","2 48886  97.5772 177.2375 0007596 352.1861   7.9255 15.22240351 90213","2021-059H","48886","6877.222","94.597","504.311","493.863","0"
"GENERATED VIA SPACETRACK.ORG API","18 SPCS","48886","SPACEBEE-102","PAYLOAD","U","21059H","2023-02-11 20:29:11","369184","15.22263156","0.0007828","97.5772","177.5025","350.7634","9.3457","0","999","9025","0.0017466","0.00040334","0","3786577","0 SPACEBEE-102","1 48886U 21059H   23042.85360381  .00040334  00000-0  17466-2 0  9996","2 48886  97.5772 177.5025 0007828 350.7634   9.3457 15.22263156 90250","2021-059H","48886","6877.153","94.596","504.401","493.635","0"
